OSCAR 7 (AO-7)          
1 07530U 74089B   26201.25939997 -.00000051  00000+0 -27216-4 0  9996
2 07530 101.9907 214.8508 0012630  69.0056 354.0425 12.53698630364661
PHASE 3B (AO-10)        
1 14129U 83058B   26198.95931596 -.00000201  00000+0  00000+0 0  9996
2 14129  25.9392 214.4954 6000614 124.1231 307.7423  2.05871393296123
UOSAT 2 (UO-11)         
1 14781U 84021B   26200.90806388  .00000692  00000+0  75890-4 0  9997
2 14781  97.8080 166.1230 0009202  78.3778 281.8473 14.90855306262001
LUSAT (LO-19)           
1 20442U 90005G   26201.32199783  .00000031  00000+0  27721-4 0  9995
2 20442  98.8846 224.0395 0012649 107.6056 252.6510 14.34131600907144
EYESAT A (AO-27)        
1 22825U 93061C   26201.14366892  .00000026  00000+0  26830-4 0  9998
2 22825  98.6863 268.5424 0008473  11.8665 348.2716 14.30949875711719
ITAMSAT (IO-26)         
1 22826U 93061D   26201.11324308  .00000018  00000+0  23786-4 0  9990
2 22826  98.6812 268.4329 0008660 354.6993   5.4097 14.31377545712026
RADIO ROSTO (RS15)      
1 23439U 94085A   26201.10832059 -.00000051  00000+0 -25356-3 0  9997
2 23439  64.8145 249.9747 0157105 357.8021   2.2196 11.27583634299615
JAS-2 (FO-29)           
1 24278U 96046B   26201.13722782 -.00000049  00000+0 -13216-4 0  9992
2 24278  98.5218  45.4924 0350123  11.1325 349.7313 13.53275824477629
TECHSAT 1B (GO-32)      
1 25397U 98043D   26201.21901481  .00000014  00000+0  26364-4 0  9996
2 25397  99.0089 194.8138 0002305 107.1478 252.9953 14.24433954456037
ISS (ZARYA)             
1 25544U 98067A   26201.08882182  .00004577  00000+0  91000-4 0  9994
2 25544  51.6315 137.2714 0006813 316.7062  43.3390 15.49056873576852
PCSAT (NO-44)           
1 26931U 01043C   26201.12621364  .00000039  00000+0  45495-4 0  9997
2 26931  67.0499 159.0756 0005868 266.9359  93.1071 14.31966145295162
SAUDISAT 1C (SO-50)     
1 27607U 02058C   26200.92670931  .00000394  00000+0  64508-4 0  9996
2 27607  64.5521  27.6843 0074380 256.4147 102.8667 14.83103564269314
CUTE-1 (CO-55)          
1 27844U 03031E   26201.26425805  .00000144  00000+0  81134-4 0  9994
2 27844  98.6745 209.4081 0010867  89.7034 270.5390 14.24353468196386
CUBESAT XI-IV (CO-57)   
1 27848U 03031J   26200.98821655  .00000102  00000+0  63799-4 0  9990
2 27848  98.6776 208.8216 0010677 106.9175 253.3176 14.23636063196042
MOZHAETS 4 (RS22)       
1 27939U 03042A   26201.30365373  .00000115  00000+0  25931-4 0  9990
2 27939  98.3482  26.6000 0011656 157.2918  15.7654 14.73517665220425
CUBESAT XI-V            
1 28895U 05043F   26200.88003785  .00000644  00000+0  10905-3 0  9994
2 28895  98.3023 357.1961 0015361 101.5364 258.7568 14.72708978106569
CUTE-1.7+APD II (CO-65) 
1 32785U 08021C   26201.25822135  .00002186  00000+0  13974-3 0  9998
2 32785  97.8299 183.3757 0006838 278.2342  81.8111 15.09725222990180
SEEDS II (CO-66)        
1 32791U 08021J   26200.96172062  .00010451  00000+0  32252-3 0  9993
2 32791  97.7534 200.4527 0003605 146.3189 213.8283 15.33764303992311
YUBILEINY (RS30)        
1 32953U 08025A   26201.33591095  .00000144  00000+0  96222-3 0  9995
2 32953  82.5071 334.8194 0018743 237.1160 122.8117 12.43181292823819
KKS-1 (KISEKI)          
1 33499U 09002H   26201.24670208  .00000663  00000+0  87963-4 0  9990
2 33499  98.1170 124.2126 0007837 172.4046 187.7287 14.83196159941093
SWISSCUBE               
1 35932U 09051B   26201.21360368  .00000497  00000+0  10766-3 0  9999
2 35932  98.4002 109.6735 0008034 105.6957 254.5131 14.62536206893989
BEESAT-1                
1 35933U 09051C   26201.03497458  .00000365  00000+0  82915-4 0  9991
2 35933  98.3928 109.0582 0006364 117.2865 242.8984 14.61766071893981
ITUPSAT1                
1 35935U 09051E   26200.71211911  .00000317  00000+0  75448-4 0  9995
2 35935  98.4013 107.8874 0008343 130.5839 229.6089 14.60482308893488
XIWANG-1 (HOPE-1)       
1 36122U 09072B   26201.30349535  .00000377  00000+0  11030-2 0  9998
2 36122 100.4044 154.6095 0007701 153.4149 206.7361 13.16441437797362
O/OREOS (USA 219)       
1 37224U 10062C   26200.87589875  .00000984  00000+0  98471-4 0  9997
2 37224  71.9702   6.2836 0014306 356.0412   4.0643 14.93861460121526
JUGNU                   
1 37839U 11058B   26201.11133730  .00000356  00000+0  46325-4 0  9992
2 37839  19.9603 108.3942 0018634  80.4245 318.5256 14.13784349763697
SRMSAT                  
1 37841U 11058D   26201.31183391  .00000328  00000+0  34308-4 0  9992
2 37841  19.9702 218.9746 0011587 207.6875 256.6246 14.11581686762509
STRAND-1                
1 39090U 13009E   26201.05652889  .00000131  00000+0  58228-4 0  9991
2 39090  98.3939  20.4846 0009631 128.0148 232.1910 14.37180574701782
ZACUBE-1 (TSHEPISOSAT)  
1 39417U 13066B   26201.13332903  .00001349  00000+0  10754-3 0  9991
2 39417  97.8001 163.6305 0044083 139.3685 221.0842 15.01342161685674
GOMX-1                  
1 39430U 13066Q   26201.27786745  .00000571  00000+0  92833-4 0  9993
2 39430  97.6464  39.6520 0127810 331.8507  27.5830 14.69548977674774
